[
{"pref":"北海道","areacode":"Z041","lat":"43.06417","lng":"141.34694"},
{"pref":"青森","areacode":"Z051","lat":"40.82444","lng":"140.74"},
{"pref":"岩手","areacode":"Z052","lat":"39.70361","lng":"141.1525"},
{"pref":"宮城","areacode":"Z052","lat":"39.70361","lng":"141.1525"},
{"pref":"秋田","areacode":"Z054","lat":"39.71861","lng":"140.1025"},
{"pref":"山形","areacode":"Z055","lat":"38.24056","lng":"140.36333"},
{"pref":"福島","areacode":"Z056","lat":"37.75","lng":"140.46778"},
{"pref":"茨城","areacode":"Z015","lat":"36.34139","lng":"140.44667"},
{"pref":"栃木","areacode":"Z016","lat":"36.56583","lng":"139.88361"},
{"pref":"群馬","areacode":"Z017","lat":"36.39111","lng":"139.06083"},
{"pref":"埼玉","areacode":"Z013","lat":"35.85694","lng":"139.64889"},
{"pref":"千葉","areacode":"Z014","lat":"35.60472","lng":"140.12333"},
{"pref":"東京","areacode":"Z011","lat":"35.68944","lng":"139.69167"},
{"pref":"神奈川","areacode":"Z012","lat":"35.44778","lng":"139.6425"},
{"pref":"新潟","areacode":"Z061","lat":"37.90222","lng":"139.02361"},
{"pref":"富山","areacode":"Z062","lat":"36.69528","lng":"137.21139"},
{"pref":"石川","areacode":"Z063","lat":"36.59444","lng":"136.62556"},
{"pref":"福井","areacode":"Z064","lat":"36.06528","lng":"136.22194"},
{"pref":"山梨","areacode":"Z065","lat":"35.66389","lng":"138.56833"},
{"pref":"長野","areacode":"Z066","lat":"36.65139","lng":"138.18111"},
{"pref":"岐阜","areacode":"Z031","lat":"35.39111","lng":"136.72222"},
{"pref":"静岡","areacode":"Z032","lat":"34.97694","lng":"138.38306"},
{"pref":"愛知","areacode":"Z033","lat":"35.18028","lng":"136.90667"},
{"pref":"三重","areacode":"Z034","lat":"34.73028","lng":"136.50861"},
{"pref":"滋賀","areacode":"Z021","lat":"35.00444","lng":"135.86833"},
{"pref":"京都","areacode":"Z022","lat":"35.02139","lng":"135.75556"},
{"pref":"大阪","areacode":"Z023","lat":"34.68639","lng":"135.52"},
{"pref":"兵庫","areacode":"Z024","lat":"34.69139","lng":"135.18306"},
{"pref":"奈良","areacode":"Z025","lat":"34.68528","lng":"135.83278"},
{"pref":"和歌山","areacode":"Z026","lat":"34.22611","lng":"135.1675"},
{"pref":"鳥取","areacode":"Z071","lat":"35.50361","lng":"134.23833"},
{"pref":"岡山","areacode":"Z073","lat":"34.66167","lng":"133.935"},
{"pref":"広島","areacode":"Z074","lat":"34.39639","lng":"132.45944"},
{"pref":"山口","areacode":"Z075","lat":"34.18583","lng":"131.47139"},
{"pref":"徳島","areacode":"Z081","lat":"34.06583","lng":"134.55944"},
{"pref":"香川","areacode":"Z082","lat":"34.34028","lng":"134.04333"},
{"pref":"愛媛","areacode":"Z083","lat":"33.84167","lng":"132.76611"},
{"pref":"高知","areacode":"Z084","lat":"33.55972","lng":"133.53111"},
{"pref":"福岡","areacode":"Z091","lat":"33.60639","lng":"130.41806"},
{"pref":"佐賀","areacode":"Z092","lat":"33.24944","lng":"130.29889"},
{"pref":"長崎","areacode":"Z093","lat":"32.74472","lng":"129.87361"},
{"pref":"熊本","areacode":"Z094","lat":"32.78972","lng":"130.74167"},
{"pref":"大分","areacode":"Z095","lat":"33.23806","lng":"131.6125"},
{"pref":"宮崎","areacode":"Z096","lat":"31.91111","lng":"131.42389"},
{"pref":"鹿児島","areacode":"Z097","lat":"31.56028","lng":"130.55806"},
{"pref":"沖縄","areacode":"Z098","lat":"26.2125","lng":"127.68111"}
]